start=new Date('2021-09-05T00:00:00.000Z').valueOf();
sats=[{"OBJECT_TYPE":"PAYLOAD","INCLINATION":"53.0456","SITE":"AFETR","APOAPSIS":"352.480","PERIOD":"91.531","CLASSIFICATION_TYPE":"U","RCS_SIZE":"LARGE","DECAY_DATE":null,"MEAN_ANOMALY":"354.3022","EPHEMERIS_TYPE":"0","COUNTRY_CODE":"US","OBJECT_NAME":"STARLINK-2328","SEMIMAJOR_AXIS":"6727.784","NORAD_CAT_ID":"47872","TLE_LINE1":"1 47872U 21021N   21247.63409223  .00008178  00000-0  62528-4 0  9990","MEAN_MOTION_DDOT":"0.0000000000000","GP_ID":"184105969","ELEMENT_SET_NO":"999","FILE":"3108751","EPOCH":"2021-09-04T15:13:05.568672","MEAN_MOTION":"15.73239049","OBJECT_ID":"2021-021N","PERIAPSIS":"346.818","LAUNCH_DATE":"2021-03-14","MEAN_MOTION_DOT":"0.00008178","ECCENTRICITY":"0.00042080","BSTAR":"0.00006252800000","REV_AT_EPOCH":"2841","MEAN_ELEMENT_THEORY":"SGP4","RA_OF_ASC_NODE":"72.3546","TLE_LINE2":"2 47872  53.0456  72.3546 0004208   5.8044 354.3022 15.73239049 28412","TIME_SYSTEM":"UTC","ARG_OF_PERICENTER":"5.8044","CENTER_NAME":"EARTH","REF_FRAME":"TEME"},{"MEAN_ANOMALY":"256.5705","SEMIMAJOR_AXIS":"6925.375","OBJECT_NAME":"STARLINK-2329","COUNTRY_CODE":"US","EPHEMERIS_TYPE":"0","NORAD_CAT_ID":"47873","OBJECT_TYPE":"PAYLOAD","SITE":"AFETR","INCLINATION":"53.0457","DECAY_DATE":null,"RCS_SIZE":"LARGE","CLASSIFICATION_TYPE":"U","PERIOD":"95.593","APOAPSIS":"548.826","ECCENTRICITY":"0.00022890","MEAN_MOTION_DOT":"-0.00000760","LAUNCH_DATE":"2021-03-14","PERIAPSIS":"545.655","TLE_LINE2":"2 47873  53.0457  97.1194 0002289 103.5539 256.5705 15.06391221 28025","RA_OF_ASC_NODE":"97.1194","REV_AT_EPOCH":"2802","MEAN_ELEMENT_THEORY":"SGP4","BSTAR":"-0.00003208200000","TIME_SYSTEM":"UTC","REF_FRAME":"TEME","CENTER_NAME":"EARTH","ARG_OF_PERICENTER":"103.5539","MEAN_MOTION_DDOT":"0.0000000000000","GP_ID":"184078517","TLE_LINE1":"1 47873U 21021P   21247.29143841 -.00000760  00000-0 -32082-4 0  9997","ELEMENT_SET_NO":"999","OBJECT_ID":"2021-021P","EPOCH":"2021-09-04T06:59:40.278624","MEAN_MOTION":"15.06391221","FILE":"3108585"},{"FILE":"3108751","OBJECT_ID":"2021-021Q","EPOCH":"2021-09-04T16:44:43.154016","MEAN_MOTION":"15.73247027","TLE_LINE1":"1 47874U 21021Q   21247.69772169  .00002618  00000-0  23045-4 0  9994","GP_ID":"184104968","MEAN_MOTION_DDOT":"0.0000000000000","ELEMENT_SET_NO":"999","TIME_SYSTEM":"UTC","CENTER_NAME":"EARTH","ARG_OF_PERICENTER":"2.6075","REF_FRAME":"TEME","LAUNCH_DATE":"2021-03-14","PERIAPSIS":"346.884","MEAN_MOTION_DOT":"0.00002618","ECCENTRICITY":"0.00040760","BSTAR":"0.00002304500000","TLE_LINE2":"2 47874  53.0462  72.0397 0004076   2.6075 357.4963 15.73247027 28428","RA_OF_ASC_NODE":"72.0397","REV_AT_EPOCH":"2842","MEAN_ELEMENT_THEORY":"SGP4","PERIOD":"91.530","APOAPSIS":"352.368","DECAY_DATE":null,"RCS_SIZE":"LARGE","CLASSIFICATION_TYPE":"U","OBJECT_TYPE":"PAYLOAD","SITE":"AFETR","INCLINATION":"53.0462","NORAD_CAT_ID":"47874","MEAN_ANOMALY":"357.4963","COUNTRY_CODE":"US","EPHEMERIS_TYPE":"0","SEMIMAJOR_AXIS":"6727.761","OBJECT_NAME":"STARLINK-2330"},{"ARG_OF_PERICENTER":"88.8593","CENTER_NAME":"EARTH","REF_FRAME":"TEME","TIME_SYSTEM":"UTC","BSTAR":"0.00010751000000","REV_AT_EPOCH":"2799","MEAN_ELEMENT_THEORY":"SGP4","TLE_LINE2":"2 47875  53.0539 105.6163 0002150  88.8593 271.2642 15.06407178 27999","RA_OF_ASC_NODE":"105.6163","PERIAPSIS":"545.703","LAUNCH_DATE":"2021-03-14","MEAN_MOTION_DOT":"0.00001320","ECCENTRICITY":"0.00021500","FILE":"3108751","MEAN_MOTION":"15.06407178","EPOCH":"2021-09-04T14:45:25.051392","OBJECT_ID":"2021-021R","ELEMENT_SET_NO":"999","TLE_LINE1":"1 47875U 21021R   21247.61487328  .00001320  00000-0  10751-3 0  9995","MEAN_MOTION_DDOT":"0.0000000000000","GP_ID":"184105218","NORAD_CAT_ID":"47875","COUNTRY_CODE":"US","EPHEMERIS_TYPE":"0","OBJECT_NAME":"STARLINK-2331","SEMIMAJOR_AXIS":"6925.327","MEAN_ANOMALY":"271.2642","APOAPSIS":"548.681","PERIOD":"95.592","CLASSIFICATION_TYPE":"U","RCS_SIZE":"LARGE","DECAY_DATE":null,"INCLINATION":"53.0539","SITE":"AFETR","OBJECT_TYPE":"PAYLOAD"},{"BSTAR":"-0.00004573700000","TLE_LINE2":"2 47876  53.0565 105.6622 0002454  91.8182 268.3088 15.06393684 27946","RA_OF_ASC_NODE":"105.6622","MEAN_ELEMENT_THEORY":"SGP4","REV_AT_EPOCH":"2794","LAUNCH_DATE":"2021-03-14","PERIAPSIS":"545.533","ECCENTRICITY":"0.00024540","MEAN_MOTION_DOT":"-0.00000963","CENTER_NAME":"EARTH","ARG_OF_PERICENTER":"91.8182","REF_FRAME":"TEME","TIME_SYSTEM":"UTC","ELEMENT_SET_NO":"999","TLE_LINE1":"1 47876U 21021S   21247.60381733 -.00000963  00000-0 -45737-4 0  9995","GP_ID":"184105470","MEAN_MOTION_DDOT":"0.0000000000000","FILE":"3108751","OBJECT_ID":"2021-021S","EPOCH":"2021-09-04T14:29:29.817312","MEAN_MOTION":"15.06393684","EPHEMERIS_TYPE":"0","COUNTRY_CODE":"US","SEMIMAJOR_AXIS":"6925.368","OBJECT_NAME":"STARLINK-2332","MEAN_ANOMALY":"268.3088","NORAD_CAT_ID":"47876","SITE":"AFETR","INCLINATION":"53.0565","OBJECT_TYPE":"PAYLOAD","PERIOD":"95.593","APOAPSIS":"548.932","RCS_SIZE":"LARGE","DECAY_DATE":null,"CLASSIFICATION_TYPE":"U"},{"NORAD_CAT_ID":"47877","EPHEMERIS_TYPE":"0","COUNTRY_CODE":"US","SEMIMAJOR_AXIS":"6925.342","OBJECT_NAME":"STARLINK-2333","MEAN_ANOMALY":"265.2419","PERIOD":"95.592","APOAPSIS":"548.757","RCS_SIZE":"LARGE","DECAY_DATE":null,"CLASSIFICATION_TYPE":"U","SITE":"AFETR","INCLINATION":"53.0537","OBJECT_TYPE":"PAYLOAD","CENTER_NAME":"EARTH","ARG_OF_PERICENTER":"94.8826","REF_FRAME":"TEME","TIME_SYSTEM":"UTC","BSTAR":"-0.00004284700000","RA_OF_ASC_NODE":"106.7901","TLE_LINE2":"2 47877  53.0537 106.7901 0002238  94.8826 265.2419 15.06402168 27892","MEAN_ELEMENT_THEORY":"SGP4","REV_AT_EPOCH":"2789","PERIAPSIS":"545.657","LAUNCH_DATE":"2021-03-14","ECCENTRICITY":"0.00022380","MEAN_MOTION_DOT":"-0.00000920","FILE":"3108585","OBJECT_ID":"2021-021T","EPOCH":"2021-09-04T08:28:34.088448","MEAN_MOTION":"15.06402168","ELEMENT_SET_NO":"999","TLE_LINE1":"1 47877U 21021T   21247.35317232 -.00000920  00000-0 -42847-4 0  9993","MEAN_MOTION_DDOT":"0.0000000000000","GP_ID":"184079018"},{"OBJECT_NAME":"STARLINK-2335","SEMIMAJOR_AXIS":"6925.341","COUNTRY_CODE":"US","EPHEMERIS_TYPE":"0","MEAN_ANOMALY":"277.3149","NORAD_CAT_ID":"47878","INCLINATION":"53.0562","SITE":"AFETR","OBJECT_TYPE":"PAYLOAD","CLASSIFICATION_TYPE":"U","RCS_SIZE":"LARGE","DECAY_DATE":null,"APOAPSIS":"548.500","PERIOD":"95.592","REV_AT_EPOCH":"2765","MEAN_ELEMENT_THEORY":"SGP4","RA_OF_ASC_NODE":"107.9307","TLE_LINE2":"2 47878  53.0562 107.9307 0001869  82.8052 277.3149 15.06402541 27654","BSTAR":"-0.00001607000000","ECCENTRICITY":"0.00018690","MEAN_MOTION_DOT":"-0.00000521","PERIAPSIS":"545.911","LAUNCH_DATE":"2021-03-14","REF_FRAME":"TEME","ARG_OF_PERICENTER":"82.8052","CENTER_NAME":"EARTH","TIME_SYSTEM":"UTC","ELEMENT_SET_NO":"999","MEAN_MOTION_DDOT":"0.0000000000000","GP_ID":"184079267","TLE_LINE1":"1 47878U 21021U   21247.09884424 -.00000521  00000-0 -16070-4 0  9993","EPOCH":"2021-09-04T02:22:20.142336","MEAN_MOTION":"15.06402541","OBJECT_ID":"2021-021U","FILE":"3108585"},{"OBJECT_ID":"2021-021V","EPOCH":"2021-09-04T08:39:54.046944","MEAN_MOTION":"15.06376505","FILE":"3108585","MEAN_MOTION_DDOT":"0.0000000000000","GP_ID":"184077516","TLE_LINE1":"1 47879U 21021V   21247.36104221  .00007017  00000-0  48982-3 0  9995","ELEMENT_SET_NO":"999","TIME_SYSTEM":"UTC","REF_FRAME":"TEME","CENTER_NAME":"EARTH","ARG_OF_PERICENTER":"73.2526","ECCENTRICITY":"0.00021770","MEAN_MOTION_DOT":"0.00007017","LAUNCH_DATE":"2021-03-14","PERIAPSIS":"545.778","RA_OF_ASC_NODE":"121.7615","TLE_LINE2":"2 47879  53.0582 121.7615 0002177  73.2526 286.8702 15.06376505 27869","REV_AT_EPOCH":"2786","MEAN_ELEMENT_THEORY":"SGP4","BSTAR":"0.00048982000000","RCS_SIZE":"LARGE","DECAY_DATE":null,"CLASSIFICATION_TYPE":"U","PERIOD":"95.594","APOAPSIS":"548.793","OBJECT_TYPE":"PAYLOAD","SITE":"AFETR","INCLINATION":"53.0582","NORAD_CAT_ID":"47879","MEAN_ANOMALY":"286.8702","SEMIMAJOR_AXIS":"6925.421","OBJECT_NAME":"STARLINK-2336","EPHEMERIS_TYPE":"0","COUNTRY_CODE":"US"},{"ELEMENT_SET_NO":"999","GP_ID":"184078266","MEAN_MOTION_DDOT":"0.0000000000000","TLE_LINE1":"1 47880U 21021W   21247.33658386  .00001578  00000-0  12481-3 0  9991","MEAN_MOTION":"15.06400780","EPOCH":"2021-09-04T08:04:40.845504","OBJECT_ID":"2021-021W","FILE":"3108585","MEAN_ELEMENT_THEORY":"SGP4","REV_AT_EPOCH":"2775","RA_OF_ASC_NODE":"116.8603","TLE_LINE2":"2 47880  53.0542 116.8603 0002065  74.9061 285.2156 15.06400780 27754","BSTAR":"0.00012481000000","ECCENTRICITY":"0.00020650","MEAN_MOTION_DOT":"0.00001578","LAUNCH_DATE":"2021-03-14","PERIAPSIS":"545.781","REF_FRAME":"TEME","ARG_OF_PERICENTER":"74.9061","CENTER_NAME":"EARTH","TIME_SYSTEM":"UTC","INCLINATION":"53.0542","SITE":"AFETR","OBJECT_TYPE":"PAYLOAD","CLASSIFICATION_TYPE":"U","RCS_SIZE":"LARGE","DECAY_DATE":null,"APOAPSIS":"548.641","PERIOD":"95.592","OBJECT_NAME":"STARLINK-2337","SEMIMAJOR_AXIS":"6925.346","EPHEMERIS_TYPE":"0","COUNTRY_CODE":"US","MEAN_ANOMALY":"285.2156","NORAD_CAT_ID":"47880"},{"OBJECT_TYPE":"PAYLOAD","INCLINATION":"53.0557","SITE":"AFETR","APOAPSIS":"547.831","PERIOD":"95.592","CLASSIFICATION_TYPE":"U","RCS_SIZE":"LARGE","DECAY_DATE":null,"MEAN_ANOMALY":"340.1727","EPHEMERIS_TYPE":"0","COUNTRY_CODE":"US","OBJECT_NAME":"STARLINK-2339","SEMIMAJOR_AXIS":"6925.340","NORAD_CAT_ID":"47881","TLE_LINE1":"1 47881U 21021X   21247.42596524  .00000971  00000-0  84056-4 0  9991","MEAN_MOTION_DDOT":"0.0000000000000","GP_ID":"184105721","ELEMENT_SET_NO":"999","FILE":"3108751","MEAN_MOTION":"15.06402828","EPOCH":"2021-09-04T10:13:23.396736","OBJECT_ID":"2021-021X","LAUNCH_DATE":"2021-03-14","PERIAPSIS":"546.579","MEAN_MOTION_DOT":"0.00000971","ECCENTRICITY":"0.00009040","BSTAR":"0.00008405600000","REV_AT_EPOCH":"2773","MEAN_ELEMENT_THEORY":"SGP4","TLE_LINE2":"2 47881  53.0557 116.3532 0000904  19.9297 340.1727 15.06402828 27735","RA_OF_ASC_NODE":"116.3532","TIME_SYSTEM":"UTC","ARG_OF_PERICENTER":"19.9297","CENTER_NAME":"EARTH","REF_FRAME":"TEME"}];
